{
  "type": "FeatureCollection",
  "features": [
    {
      "type": "Feature",
      "properties": {
        "norad_id": 30892,
        "name": "FENGYUN 1C DEB",
        "group": "fengyun-1c-debris",
        "lat": 48.155363201081904,
        "lon": -84.26294230863085,
        "alt_km": 847.8050312149444,
        "timestamp": "2025-12-09T18:55:17.511196+00:00",
        "meta_object_name": "FENGYUN 1C DEB",
        "meta_object_id": "1999-025AYE",
        "meta_epoch": "2025-12-02T15:45:32.268672",
        "meta_mean_motion": 14.18893658,
        "meta_eccentricity": 0.00376287,
        "meta_inclination": 99.6617,
        "meta_ra_of_asc_node": 278.9389,
        "meta_arg_of_pericenter": 217.7485,
        "meta_mean_anomaly": 142.1047,
        "meta_ephemeris_type": 0,
        "meta_classification_type": "U",
        "meta_norad_cat_id": 30892,
        "meta_element_set_no": 999,
        "meta_rev_at_epoch": 64160,
        "meta_bstar": 0.00053864396,
        "meta_mean_motion_dot": 1.078e-05,
        "meta_mean_motion_ddot": 0,
        "tle_line1": "1 30892U 99025AYE 25336.65662348  .00001078  00000+0  53864-3 0  9990",
        "tle_line2": "2 30892  99.6617 278.9389 0037628 217.7485 142.1047 14.18893658641607"
      },
      "geometry": {
        "type": "Point",
        "coordinates": [
          -84.26294230863085,
          48.155363201081904
        ]
      }
    },
    {
      "type": "Feature",
      "properties": {
        "norad_id": 30893,
        "name": "FENGYUN 1C DEB",
        "group": "fengyun-1c-debris",
        "lat": 29.486062529952378,
        "lon": 6.556833245263845,
        "alt_km": 833.9985023344016,
        "timestamp": "2025-12-09T18:55:17.511209+00:00",
        "meta_object_name": "FENGYUN 1C DEB",
        "meta_object_id": "1999-025AYF",
        "meta_epoch": "2025-12-06T08:24:45.258048",
        "meta_mean_motion": 13.94039277,
        "meta_eccentricity": 0.03095885,
        "meta_inclination": 98.258,
        "meta_ra_of_asc_node": 8.1876,
        "meta_arg_of_pericenter": 110.75,
        "meta_mean_anomaly": 318.9405,
        "meta_ephemeris_type": 0,
        "meta_classification_type": "U",
        "meta_norad_cat_id": 30893,
        "meta_element_set_no": 999,
        "meta_rev_at_epoch": 94796,
        "meta_bstar": 0.00098360292,
        "meta_mean_motion_dot": 1.902e-05,
        "meta_mean_motion_ddot": 0,
        "tle_line1": "1 30893U 99025AYF 25340.35052382  .00001902  00000+0  98360-3 0  9990",
        "tle_line2": "2 30893  98.2580   8.1876 0309588 110.7500 318.9405 13.94039277947964"
      },
      "geometry": {
        "type": "Point",
        "coordinates": [
          6.556833245263845,
          29.486062529952378
        ]
      }
    },
    {
      "type": "Feature",
      "properties": {
        "norad_id": 30895,
        "name": "FENGYUN 1C DEB",
        "group": "fengyun-1c-debris",
        "lat": -69.06121574442679,
        "lon": -151.38258300170193,
        "alt_km": 864.7928216008722,
        "timestamp": "2025-12-09T18:55:17.511232+00:00",
        "meta_object_name": "FENGYUN 1C DEB",
        "meta_object_id": "1999-025AYH",
        "meta_epoch": "2025-12-08T17:11:57.708096",
        "meta_mean_motion": 14.31531098,
        "meta_eccentricity": 0.0218027,
        "meta_inclination": 98.7199,
        "meta_ra_of_asc_node": 51.1873,
        "meta_arg_of_pericenter": 135.8816,
        "meta_mean_anomaly": 352.574,
        "meta_ephemeris_type": 0,
        "meta_classification_type": "U",
        "meta_norad_cat_id": 30895,
        "meta_element_set_no": 999,
        "meta_rev_at_epoch": 97735,
        "meta_bstar": 0.00056993,
        "meta_mean_motion_dot": 1.919e-05,
        "meta_mean_motion_ddot": 0,
        "tle_line1": "1 30895U 99025AYH 25342.71664014  .00001919  00000+0  56993-3 0  9999",
        "tle_line2": "2 30895  98.7199  51.1873 0218027 135.8816 352.5740 14.31531098977359"
      },
      "geometry": {
        "type": "Point",
        "coordinates": [
          -151.38258300170193,
          -69.06121574442679
        ]
      }
    },
    {
      "type": "Feature",
      "properties": {
        "norad_id": 30898,
        "name": "FENGYUN 1C DEB",
        "group": "fengyun-1c-debris",
        "lat": 14.050520751253154,
        "lon": 76.93914833559063,
        "alt_km": 482.539566587654,
        "timestamp": "2025-12-09T18:55:17.511242+00:00",
        "meta_object_name": "FENGYUN 1C DEB",
        "meta_object_id": "1999-025AYL",
        "meta_epoch": "2025-12-05T11:34:54.125760",
        "meta_mean_motion": 15.20738594,
        "meta_eccentricity": 0.00403265,
        "meta_inclination": 99.0264,
        "meta_ra_of_asc_node": 249.5052,
        "meta_arg_of_pericenter": 135.2764,
        "meta_mean_anomaly": 225.173,
        "meta_ephemeris_type": 0,
        "meta_classification_type": "U",
        "meta_norad_cat_id": 30898,
        "meta_element_set_no": 999,
        "meta_rev_at_epoch": 66261,
        "meta_bstar": 0.0042104008,
        "meta_mean_motion_dot": 0.00095752,
        "meta_mean_motion_ddot": 0,
        "tle_line1": "1 30898U 99025AYL 25339.48257090  .00095752  00000+0  42104-2 0  9990",
        "tle_line2": "2 30898  99.0264 249.5052 0040326 135.2764 225.1730 15.20738594662615"
      },
      "geometry": {
        "type": "Point",
        "coordinates": [
          76.93914833559063,
          14.050520751253154
        ]
      }
    },
    {
      "type": "Feature",
      "properties": {
        "norad_id": 30903,
        "name": "FENGYUN 1C DEB",
        "group": "fengyun-1c-debris",
        "lat": 78.36291951453332,
        "lon": 176.0329807792579,
        "alt_km": 827.5990773390322,
        "timestamp": "2025-12-09T18:55:17.511255+00:00",
        "meta_object_name": "FENGYUN 1C DEB",
        "meta_object_id": "1999-025AYR",
        "meta_epoch": "2025-12-07T09:49:46.651872",
        "meta_mean_motion": 13.9759553,
        "meta_eccentricity": 0.00968558,
        "meta_inclination": 99.3712,
        "meta_ra_of_asc_node": 226.9134,
        "meta_arg_of_pericenter": 107.4967,
        "meta_mean_anomaly": 253.6808,
        "meta_ephemeris_type": 0,
        "meta_classification_type": "U",
        "meta_norad_cat_id": 30903,
        "meta_element_set_no": 999,
        "meta_rev_at_epoch": 68630,
        "meta_bstar": 0.0004593066,
        "meta_mean_motion_dot": 6.28e-06,
        "meta_mean_motion_ddot": 0,
        "tle_line1": "1 30903U 99025AYR 25341.40956773  .00000628  00000+0  45931-3 0  9996",
        "tle_line2": "2 30903  99.3712 226.9134 0096855 107.4967 253.6808 13.97595530686304"
      },
      "geometry": {
        "type": "Point",
        "coordinates": [
          176.0329807792579,
          78.36291951453332
        ]
      }
    },
    {
      "type": "Feature",
      "properties": {
        "norad_id": 30905,
        "name": "FENGYUN 1C DEB",
        "group": "fengyun-1c-debris",
        "lat": -41.51533578326668,
        "lon": -128.7797740691394,
        "alt_km": 867.0893188599239,
        "timestamp": "2025-12-09T18:55:17.511266+00:00",
        "meta_object_name": "FENGYUN 1C DEB",
        "meta_object_id": "1999-025AYT",
        "meta_epoch": "2025-12-08T23:15:07.853760",
        "meta_mean_motion": 14.17815093,
        "meta_eccentricity": 0.0056929,
        "meta_inclination": 98.8892,
        "meta_ra_of_asc_node": 58.3633,
        "meta_arg_of_pericenter": 91.4646,
        "meta_mean_anomaly": 269.3051,
        "meta_ephemeris_type": 0,
        "meta_classification_type": "U",
        "meta_norad_cat_id": 30905,
        "meta_element_set_no": 999,
        "meta_rev_at_epoch": 96069,
        "meta_bstar": 0.0017475,
        "meta_mean_motion_dot": 3.58e-05,
        "meta_mean_motion_ddot": 0,
        "tle_line1": "1 30905U 99025AYT 25342.96884090  .00003580  00000+0  17475-2 0  9993",
        "tle_line2": "2 30905  98.8892  58.3633 0056929  91.4646 269.3051 14.17815093960697"
      },
      "geometry": {
        "type": "Point",
        "coordinates": [
          -128.7797740691394,
          -41.51533578326668
        ]
      }
    },
    {
      "type": "Feature",
      "properties": {
        "norad_id": 30912,
        "name": "FENGYUN 1C DEB",
        "group": "fengyun-1c-debris",
        "lat": 77.13026525286602,
        "lon": 48.57010013790085,
        "alt_km": 552.0858355499058,
        "timestamp": "2025-12-09T18:55:17.511276+00:00",
        "meta_object_name": "FENGYUN 1C DEB",
        "meta_object_id": "1999-025AZA",
        "meta_epoch": "2025-12-09T00:44:32.125632",
        "meta_mean_motion": 14.89217695,
        "meta_eccentricity": 0.00592295,
        "meta_inclination": 98.9968,
        "meta_ra_of_asc_node": 183.8065,
        "meta_arg_of_pericenter": 109.6875,
        "meta_mean_anomaly": 251.0742,
        "meta_ephemeris_type": 0,
        "meta_classification_type": "U",
        "meta_norad_cat_id": 30912,
        "meta_element_set_no": 999,
        "meta_rev_at_epoch": 99349,
        "meta_bstar": 0.0016490371,
        "meta_mean_motion_dot": 0.00016076,
        "meta_mean_motion_ddot": 0,
        "tle_line1": "1 30912U 99025AZA 25343.03092738  .00016076  00000+0  16490-2 0  9990",
        "tle_line2": "2 30912  98.9968 183.8065 0059229 109.6875 251.0742 14.89217695993497"
      },
      "geometry": {
        "type": "Point",
        "coordinates": [
          48.57010013790085,
          77.13026525286602
        ]
      }
    }
  ]
}